start=new Date('2023-06-19T00:00:00.000Z').valueOf();
sats=[{"ARG_OF_PERICENTER":"93.9937","TLE_LINE2":"2 53627  53.2169  19.7971 0000831  93.9937 266.1150 15.08847865 45571","INCLINATION":"53.2169","OBJECT_TYPE":"PAYLOAD","MEAN_ANOMALY":"266.1150","RA_OF_ASC_NODE":"19.7971","COUNTRY_CODE":"US","REF_FRAME":"TEME","CENTER_NAME":"EARTH","RCS_SIZE":"LARGE","FILE":"3936745","EPHEMERIS_TYPE":"0","OBJECT_ID":"2022-104AR","MEAN_MOTION_DOT":"0.00000991","MEAN_MOTION":"15.08847865","REV_AT_EPOCH":"4557","CLASSIFICATION_TYPE":"U","DECAY_DATE":null,"TLE_LINE1":"1 53627U 22104AR  23169.86098885  .00000991  00000-0  80336-4 0  9998","BSTAR":"0.00008033600000","PERIOD":"95.437","SITE":"AFETR","NORAD_CAT_ID":"53627","EPOCH":"2023-06-18T20:39:49.436640","GP_ID":"234247844","APOAPSIS":"540.296","TIME_SYSTEM":"UTC","OBJECT_NAME":"STARLINK-4595","MEAN_MOTION_DDOT":"0.0000000000000","ELEMENT_SET_NO":"999","ECCENTRICITY":"0.00008310","PERIAPSIS":"539.146","LAUNCH_DATE":"2022-08-28","MEAN_ELEMENT_THEORY":"SGP4","SEMIMAJOR_AXIS":"6917.856"},{"LAUNCH_DATE":"2022-08-28","PERIAPSIS":"539.001","ECCENTRICITY":"0.00009940","MEAN_ELEMENT_THEORY":"SGP4","SEMIMAJOR_AXIS":"6917.824","TIME_SYSTEM":"UTC","APOAPSIS":"540.377","OBJECT_NAME":"STARLINK-4600","MEAN_MOTION_DDOT":"0.0000000000000","ELEMENT_SET_NO":"999","BSTAR":"0.00017650000000","TLE_LINE1":"1 53628U 22104AS  23169.84624455  .00002524  00000-0  17650-3 0  9997","PERIOD":"95.436","REV_AT_EPOCH":"4557","DECAY_DATE":null,"CLASSIFICATION_TYPE":"U","EPOCH":"2023-06-18T20:18:35.529120","GP_ID":"234246102","NORAD_CAT_ID":"53628","SITE":"AFETR","COUNTRY_CODE":"US","OBJECT_TYPE":"PAYLOAD","MEAN_ANOMALY":"262.7770","RA_OF_ASC_NODE":"19.7085","CENTER_NAME":"EARTH","REF_FRAME":"TEME","ARG_OF_PERICENTER":"97.3335","TLE_LINE2":"2 53628  53.2192  19.7085 0000994  97.3335 262.7770 15.08858456 45572","INCLINATION":"53.2192","MEAN_MOTION_DOT":"0.00002524","MEAN_MOTION":"15.08858456","FILE":"3936745","RCS_SIZE":"LARGE","EPHEMERIS_TYPE":"0","OBJECT_ID":"2022-104AS"},{"MEAN_ELEMENT_THEORY":"SGP4","SEMIMAJOR_AXIS":"6917.862","PERIAPSIS":"539.132","LAUNCH_DATE":"2022-08-28","ECCENTRICITY":"0.00008600","OBJECT_NAME":"STARLINK-4602","MEAN_MOTION_DDOT":"0.0000000000000","ELEMENT_SET_NO":"999","TIME_SYSTEM":"UTC","APOAPSIS":"540.322","GP_ID":"234246852","EPOCH":"2023-06-18T20:34:31.173600","NORAD_CAT_ID":"53629","SITE":"AFETR","BSTAR":"0.00008164000000","TLE_LINE1":"1 53629U 22104AT  23169.85730525  .00001012  00000-0  81640-4 0  9997","PERIOD":"95.437","REV_AT_EPOCH":"4557","CLASSIFICATION_TYPE":"U","DECAY_DATE":null,"MEAN_MOTION_DOT":"0.00001012","MEAN_MOTION":"15.08845940","FILE":"3936745","RCS_SIZE":"LARGE","OBJECT_ID":"2022-104AT","EPHEMERIS_TYPE":"0","COUNTRY_CODE":"US","MEAN_ANOMALY":"262.0394","OBJECT_TYPE":"PAYLOAD","RA_OF_ASC_NODE":"19.7738","CENTER_NAME":"EARTH","REF_FRAME":"TEME","TLE_LINE2":"2 53629  53.2174  19.7738 0000860  98.0696 262.0394 15.08845940 45577","ARG_OF_PERICENTER":"98.0696","INCLINATION":"53.2174"},{"PERIAPSIS":"538.824","LAUNCH_DATE":"2022-08-28","ECCENTRICITY":"0.00013100","SEMIMAJOR_AXIS":"6917.865","MEAN_ELEMENT_THEORY":"SGP4","TIME_SYSTEM":"UTC","APOAPSIS":"540.636","MEAN_MOTION_DDOT":"0.0000000000000","ELEMENT_SET_NO":"999","OBJECT_NAME":"STARLINK-4598","CLASSIFICATION_TYPE":"U","DECAY_DATE":null,"REV_AT_EPOCH":"4587","PERIOD":"95.437","BSTAR":"0.00004428600000","TLE_LINE1":"1 53630U 22104AU  23169.82516144  .00000417  00000-0  44286-4 0  9998","SITE":"AFETR","GP_ID":"234247601","EPOCH":"2023-06-18T19:48:13.948416","NORAD_CAT_ID":"53630","INCLINATION":"53.2178","ARG_OF_PERICENTER":"79.3276","TLE_LINE2":"2 53630  53.2178  10.3042 0001310  79.3276 280.7864 15.08845085 45877","CENTER_NAME":"EARTH","REF_FRAME":"TEME","COUNTRY_CODE":"US","OBJECT_TYPE":"PAYLOAD","MEAN_ANOMALY":"280.7864","RA_OF_ASC_NODE":"10.3042","OBJECT_ID":"2022-104AU","EPHEMERIS_TYPE":"0","FILE":"3936745","RCS_SIZE":"LARGE","MEAN_MOTION":"15.08845085","MEAN_MOTION_DOT":"0.00000417"},{"RCS_SIZE":"LARGE","FILE":"3936745","OBJECT_ID":"2022-104AV","EPHEMERIS_TYPE":"0","MEAN_MOTION_DOT":"0.00002430","MEAN_MOTION":"15.08841255","ARG_OF_PERICENTER":"76.5273","TLE_LINE2":"2 53631  53.2173  19.7311 0000907  76.5273 283.5820 15.08841255 45577","INCLINATION":"53.2173","RA_OF_ASC_NODE":"19.7311","OBJECT_TYPE":"PAYLOAD","MEAN_ANOMALY":"283.5820","COUNTRY_CODE":"US","REF_FRAME":"TEME","CENTER_NAME":"EARTH","SITE":"AFETR","NORAD_CAT_ID":"53631","GP_ID":"234247345","EPOCH":"2023-06-18T20:23:55.691232","REV_AT_EPOCH":"4557","CLASSIFICATION_TYPE":"U","DECAY_DATE":null,"TLE_LINE1":"1 53631U 22104AV  23169.84995013  .00002430  00000-0  17070-3 0  9994","BSTAR":"0.00017070000000","PERIOD":"95.437","OBJECT_NAME":"STARLINK-4599","ELEMENT_SET_NO":"999","MEAN_MOTION_DDOT":"0.0000000000000","APOAPSIS":"540.369","TIME_SYSTEM":"UTC","MEAN_ELEMENT_THEORY":"SGP4","SEMIMAJOR_AXIS":"6917.877","ECCENTRICITY":"0.00009070","LAUNCH_DATE":"2022-08-28","PERIAPSIS":"539.114"},{"SEMIMAJOR_AXIS":"6917.883","MEAN_ELEMENT_THEORY":"SGP4","LAUNCH_DATE":"2022-08-28","PERIAPSIS":"539.075","ECCENTRICITY":"0.00009730","ELEMENT_SET_NO":"999","MEAN_MOTION_DDOT":"0.0000000000000","OBJECT_NAME":"STARLINK-4606","TIME_SYSTEM":"UTC","APOAPSIS":"540.421","EPOCH":"2023-06-18T19:37:37.814592","GP_ID":"234246602","NORAD_CAT_ID":"53632","SITE":"AFETR","PERIOD":"95.438","BSTAR":"0.00074814000000","TLE_LINE1":"1 53632U 22104AW  23169.81779878  .00011638  00000-0  74814-3 0  9990","DECAY_DATE":null,"CLASSIFICATION_TYPE":"U","REV_AT_EPOCH":"4603","MEAN_MOTION":"15.08839021","MEAN_MOTION_DOT":"0.00011638","EPHEMERIS_TYPE":"0","OBJECT_ID":"2022-104AW","FILE":"3936745","RCS_SIZE":"LARGE","CENTER_NAME":"EARTH","REF_FRAME":"TEME","COUNTRY_CODE":"US","RA_OF_ASC_NODE":"10.2617","OBJECT_TYPE":"PAYLOAD","MEAN_ANOMALY":"287.5880","INCLINATION":"53.2162","TLE_LINE2":"2 53632  53.2162  10.2617 0000973  72.5219 287.5880 15.08839021 46030","ARG_OF_PERICENTER":"72.5219"},{"PERIAPSIS":"538.947","LAUNCH_DATE":"2022-08-28","ECCENTRICITY":"0.00011270","MEAN_ELEMENT_THEORY":"SGP4","SEMIMAJOR_AXIS":"6917.861","TIME_SYSTEM":"UTC","APOAPSIS":"540.506","OBJECT_NAME":"STARLINK-4593","ELEMENT_SET_NO":"999","MEAN_MOTION_DDOT":"0.0000000000000","REV_AT_EPOCH":"4570","CLASSIFICATION_TYPE":"U","DECAY_DATE":null,"BSTAR":"0.00015352000000","TLE_LINE1":"1 53633U 22104AX  23169.82147487  .00002157  00000-0  15352-3 0  9995","PERIOD":"95.437","SITE":"AFETR","GP_ID":"234246353","EPOCH":"2023-06-18T19:42:55.428768","NORAD_CAT_ID":"53633","ARG_OF_PERICENTER":"101.2602","TLE_LINE2":"2 53633  53.2170  10.2799 0001127 101.2602 258.8517 15.08846201 45708","INCLINATION":"53.2170","COUNTRY_CODE":"US","OBJECT_TYPE":"PAYLOAD","MEAN_ANOMALY":"258.8517","RA_OF_ASC_NODE":"10.2799","CENTER_NAME":"EARTH","REF_FRAME":"TEME","FILE":"3936745","RCS_SIZE":"LARGE","OBJECT_ID":"2022-104AX","EPHEMERIS_TYPE":"0","MEAN_MOTION_DOT":"0.00002157","MEAN_MOTION":"15.08846201"},{"CLASSIFICATION_TYPE":"U","DECAY_DATE":null,"REV_AT_EPOCH":"4595","PERIOD":"95.438","TLE_LINE1":"1 53634U 22104AY  23169.28051118 -.00001888  00000-0 -10063-3 0  9997","BSTAR":"-0.00010063000000","SITE":"AFETR","NORAD_CAT_ID":"53634","EPOCH":"2023-06-18T06:43:56.165952","GP_ID":"234213116","INCLINATION":"53.2183","ARG_OF_PERICENTER":"76.0928","TLE_LINE2":"2 53634  53.2183  12.5934 0000941  76.0928 284.0169 15.08829288 45959","REF_FRAME":"TEME","CENTER_NAME":"EARTH","MEAN_ANOMALY":"284.0169","OBJECT_TYPE":"PAYLOAD","RA_OF_ASC_NODE":"12.5934","COUNTRY_CODE":"US","OBJECT_ID":"2022-104AY","EPHEMERIS_TYPE":"0","RCS_SIZE":"LARGE","FILE":"3936420","MEAN_MOTION":"15.08829288","MEAN_MOTION_DOT":"-0.00001888","ECCENTRICITY":"0.00009410","LAUNCH_DATE":"2022-08-28","PERIAPSIS":"539.127","SEMIMAJOR_AXIS":"6917.913","MEAN_ELEMENT_THEORY":"SGP4","APOAPSIS":"540.429","TIME_SYSTEM":"UTC","ELEMENT_SET_NO":"999","MEAN_MOTION_DDOT":"0.0000000000000","OBJECT_NAME":"STARLINK-4592"},{"ECCENTRICITY":"0.00010780","LAUNCH_DATE":"2022-08-28","PERIAPSIS":"538.980","SEMIMAJOR_AXIS":"6917.861","MEAN_ELEMENT_THEORY":"SGP4","APOAPSIS":"540.472","TIME_SYSTEM":"UTC","ELEMENT_SET_NO":"999","MEAN_MOTION_DDOT":"0.0000000000000","OBJECT_NAME":"STARLINK-4587","PERIOD":"95.437","TLE_LINE1":"1 53635U 22104AZ  23169.81410111  .00000694  00000-0  61676-4 0  9998","BSTAR":"0.00006167600000","DECAY_DATE":null,"CLASSIFICATION_TYPE":"U","REV_AT_EPOCH":"4603","NORAD_CAT_ID":"53635","GP_ID":"234247845","EPOCH":"2023-06-18T19:32:18.335904","SITE":"AFETR","REF_FRAME":"TEME","CENTER_NAME":"EARTH","OBJECT_TYPE":"PAYLOAD","RA_OF_ASC_NODE":"10.2356","MEAN_ANOMALY":"263.1276","COUNTRY_CODE":"US","INCLINATION":"53.2177","TLE_LINE2":"2 53635  53.2177  10.2356 0001078  96.9838 263.1276 15.08846337 46030","ARG_OF_PERICENTER":"96.9838","MEAN_MOTION":"15.08846337","MEAN_MOTION_DOT":"0.00000694","OBJECT_ID":"2022-104AZ","EPHEMERIS_TYPE":"0","RCS_SIZE":"LARGE","FILE":"3936745"},{"APOAPSIS":"540.550","TIME_SYSTEM":"UTC","MEAN_MOTION_DDOT":"0.0000000000000","ELEMENT_SET_NO":"999","OBJECT_NAME":"STARLINK-4586","ECCENTRICITY":"0.00010570","PERIAPSIS":"539.087","LAUNCH_DATE":"2022-08-28","SEMIMAJOR_AXIS":"6917.953","MEAN_ELEMENT_THEORY":"SGP4","REF_FRAME":"TEME","CENTER_NAME":"EARTH","OBJECT_TYPE":"PAYLOAD","RA_OF_ASC_NODE":"12.5421","MEAN_ANOMALY":"294.5518","COUNTRY_CODE":"US","INCLINATION":"53.2176","TLE_LINE2":"2 53636  53.2176  12.5421 0001057  65.5585 294.5518 15.08816110 45959","ARG_OF_PERICENTER":"65.5585","MEAN_MOTION":"15.08816110","MEAN_MOTION_DOT":"-0.00003815","EPHEMERIS_TYPE":"0","OBJECT_ID":"2022-104BA","RCS_SIZE":"LARGE","FILE":"3936420","PERIOD":"95.439","TLE_LINE1":"1 53636U 22104BA  23169.27315700 -.00003815  00000-0 -22191-3 0  9995","BSTAR":"-0.00022191000000","CLASSIFICATION_TYPE":"U","DECAY_DATE":null,"REV_AT_EPOCH":"4595","NORAD_CAT_ID":"53636","GP_ID":"234211637","EPOCH":"2023-06-18T06:33:20.764800","SITE":"AFETR"}];
